[{"OBJECT_NAME":"SWARM B","OBJECT_ID":"2013-067A","EPOCH":"2026-03-09T22:20:48.706656","MEAN_MOTION":15.27862638,"ECCENTRICITY":0.00036996,"INCLINATION":87.749,"RA_OF_ASC_NODE":12.4162,"ARG_OF_PERICENTER":86.3179,"MEAN_ANOMALY":273.8493,"EPHEMERIS_TYPE":0,"CLASSIFICATION_TYPE":"U","NORAD_CAT_ID":39451,"ELEMENT_SET_NO":999,"REV_AT_EPOCH":66808,"BSTAR":0.00020534236,"MEAN_MOTION_DOT":5.616e-5,"MEAN_MOTION_DDOT":0},{"OBJECT_NAME":"STARLINK-32545","OBJECT_ID":"2024-222X","EPOCH":"2026-03-09T05:27:17.997696","MEAN_MOTION":15.27592527,"ECCENTRICITY":7.24e-5,"INCLINATION":42.9973,"RA_OF_ASC_NODE":139.1901,"ARG_OF_PERICENTER":208.4705,"MEAN_ANOMALY":151.6107,"EPHEMERIS_TYPE":0,"CLASSIFICATION_TYPE":"U","NORAD_CAT_ID":62135,"ELEMENT_SET_NO":999,"REV_AT_EPOCH":7272,"BSTAR":0.0013788047,"MEAN_MOTION_DOT":0.00037889,"MEAN_MOTION_DDOT":0}]
